[{"OBJECT_NAME":"RISING 2","OBJECT_ID":"2014-029D","EPOCH":"2026-03-09T22:49:58.395648","MEAN_MOTION":14.97431818,"ECCENTRICITY":0.00015683,"INCLINATION":97.6622,"RA_OF_ASC_NODE":139.362,"ARG_OF_PERICENTER":264.4485,"MEAN_ANOMALY":95.6558,"EPHEMERIS_TYPE":0,"CLASSIFICATION_TYPE":"U","NORAD_CAT_ID":39769,"ELEMENT_SET_NO":999,"REV_AT_EPOCH":63869,"BSTAR":0.00068568934,"MEAN_MOTION_DOT":7.926e-5,"MEAN_MOTION_DDOT":0},{"OBJECT_NAME":"STARLINK-5989","OBJECT_ID":"2023-078Q","EPOCH":"2026-03-09T22:12:22.338720","MEAN_MOTION":14.98329872,"ECCENTRICITY":0.00025713,"INCLINATION":70.0007,"RA_OF_ASC_NODE":343.94,"ARG_OF_PERICENTER":272.6629,"MEAN_ANOMALY":87.4236,"EPHEMERIS_TYPE":0,"CLASSIFICATION_TYPE":"U","NORAD_CAT_ID":56781,"ELEMENT_SET_NO":999,"REV_AT_EPOCH":15271,"BSTAR":-2.2868689e-5,"MEAN_MOTION_DOT":-3.66e-6,"MEAN_MOTION_DDOT":0}]
